NORAD_CAT_ID,OBJECT_NAME,OBJECT_TYPE,EPOCH,MEAN_MOTION,ECCENTRICITY,INCLINATION,RA_OF_ASC_NODE,ARG_OF_PERICENTER,MEAN_ANOMALY,BSTAR,MEAN_MOTION_DOT,MEAN_MOTION_DDOT,TLE_LINE0,TLE_LINE1,TLE_LINE2,SEMIMAJOR_AXIS,PERIOD,APOGEE,PERIGEE,DECAYED
51889.0,STARLINK-3547,PAYLOAD,2022-03-18 08:00:01,15.73212554,0.0001361,53.219,71.241,55.5762,307.6794,-0.00016638,-0.00023916,0.0,0 STARLINK-3547,1 51889U 22022AP  22077.33334491 -.00023916  00000-0 -16638-3 0  9997,2 51889  53.2190  71.2410 0001361  55.5762 307.6794 15.73212554  3531,6727.859,91.532,350.64,348.809,0.0
51889.0,STARLINK-3547,PAYLOAD,2022-03-18 14:00:01,15.73219392,0.0001334,53.2189,70.0032,54.3683,285.5808,-9.891e-05,-0.00014489,0.0,0 STARLINK-3547,1 51889U 22022AP  22077.58334491 -.00014489  00000-0 -98910-4 0  9993,2 51889  53.2189  70.0032 0001334  54.3683 285.5808 15.73219392  3048,6727.84,91.532,350.602,348.807,0.0
51889.0,STARLINK-3547,PAYLOAD,2022-03-18 22:00:00,15.73179768,0.0001186,53.2193,68.352,63.9739,4.9288,0.00025729,0.00035611,0.0,0 STARLINK-3547,1 51889U 22022AP  22077.91667824  .00035611  00000-0  25729-3 0  9994,2 51889  53.2193  68.3520 0001186  63.9739   4.9288 15.73179768  3090,6727.953,91.534,350.616,349.02,0.0
51889.0,STARLINK-3547,PAYLOAD,2022-03-19 02:00:01,15.7319991,0.0001223,53.2195,67.5281,60.3435,233.0774,0.00014009,0.00019085,0.0,0 STARLINK-3547,1 51889U 22022AP  22078.08335648  .00019085  00000-0  14009-3 0  9995,2 51889  53.2195  67.5281 0001223  60.3435 233.0774 15.73199910  3651,6727.895,91.533,350.583,348.93800000000016,0.0
51889.0,STARLINK-3547,PAYLOAD,2022-03-19 14:00:01,15.73207162,9.97e-05,53.2171,65.0441,66.1089,180.4706,-4.158300000000001e-05,-6.452e-05,0.0,0 STARLINK-3547,1 51889U 22022AP  22078.58334491 -.00006452  00000-0 -41583-4 0  9999,2 51889  53.2171  65.0441 0000997  66.1089 180.4706 15.73207162  3730,6727.875,91.533,350.411,349.069,0.0
51889.0,STARLINK-3547,PAYLOAD,2022-03-19 22:00:01,15.73186209,0.0001351999999999,53.2191,63.4036,70.805,264.9898,0.00053318,0.00074833,0.0,0 STARLINK-3547,1 51889U 22022AP  22078.91668981  .00074833  00000-0  53318-3 0  9994,2 51889  53.2191  63.4036 0001352  70.8050 264.9898 15.73186209  3783,6727.934,91.534,350.709,348.89,0.0
51889.0,STARLINK-3547,PAYLOAD,2022-03-20 06:00:00,15.7325517,0.0001385999999999,53.2186,61.7565,60.9968,3.6634,-0.00053902,-0.00075768,0.0,0 STARLINK-3547,1 51889U 22022AP  22079.25001157 -.00075768  00000-0 -53902-3 0  9997,2 51889  53.2186  61.7565 0001386  60.9968   3.6634 15.73255170  3836,6727.738,91.53,350.535,348.67,0.0
51889.0,STARLINK-3547,PAYLOAD,2022-03-20 12:00:00,15.73214747,0.0001255,53.2181,60.5192,55.7144,345.6936,0.00019952,0.0002749,0.0,0 STARLINK-3547,1 51889U 22022AP  22079.50001157  .00027490  00000-0  19952-3 0  9999,2 51889  53.2181  60.5192 0001255  55.7144 345.6936 15.73214747  3870,6727.853,91.532,350.56199999999984,348.874,0.0
51889.0,STARLINK-3547,PAYLOAD,2022-03-20 14:00:01,15.73244398,0.0001178,53.2182,60.1062,58.9205,94.7186,-0.0002461,-0.0003508,0.0,0 STARLINK-3547,1 51889U 22022AP  22079.58334491 -.00035080  00000-0 -24610-3 0  9990,2 51889  53.2182  60.1062 0001178  58.9205  94.7186 15.73244398  3357,6727.769,91.531,350.426,348.841,0.0
51889.0,STARLINK-3547,PAYLOAD,2022-03-20 22:00:01,15.73202166,0.0001063,53.218,58.4552,65.9571,176.7336,0.00038894,0.00054323,0.0,0 STARLINK-3547,1 51889U 22022AP  22079.91668981  .00054323  00000-0  38894-3 0  9999,2 51889  53.2180  58.4552 0001063  65.9571 176.7336 15.73202166  3418,6727.889,91.533,350.469,349.039,0.0
51889.0,STARLINK-3547,PAYLOAD,2022-03-21 06:00:00,15.73238742,0.0001269,53.2181,56.8079,57.7128,273.8565,-0.00045242,-0.00063739,0.0,0 STARLINK-3547,1 51889U 22022AP  22080.25001157 -.00063739  00000-0 -45242-3 0  9992,2 51889  53.2181  56.8079 0001269  57.7128 273.8565 15.73238742  3995,6727.785,91.531,350.50300000000016,348.796,0.0
51889.0,STARLINK-3547,PAYLOAD,2022-03-21 14:00:01,15.73244064,0.0001106,53.2177,55.1576,57.8768,2.6288,-0.0009401,-0.00130768,0.0,0 STARLINK-3547,1 51889U 22022AP  22080.58334491 -.00130768  00000-0 -94010-3 0  9992,2 51889  53.2177  55.1576 0001106  57.8768   2.6288 15.73244064  3517,6727.77,91.531,350.379,348.89,0.0
51889.0,STARLINK-3547,PAYLOAD,2022-03-21 22:00:00,15.73127605,7.96e-05,53.218,53.5072,66.6129,82.8204,0.00019874,0.00027276,0.0,0 STARLINK-3547,1 51889U 22022AP  22080.91667824  .00027276  00000-0  19874-3 0  9990,2 51889  53.2180  53.5072 0000796  66.6129  82.8204 15.73127605  3572,6728.102,91.537,350.50199999999984,349.431,0.0
51889.0,STARLINK-3547,PAYLOAD,2022-03-22 04:00:00,15.73137178,8.63e-05,53.218,52.272,51.5618,74.5039,0.00015858,0.00021634,0.0,0 STARLINK-3547,1 51889U 22022AP  22081.16667824  .00021634  00000-0  15858-3 0  9998,2 51889  53.2180  52.2720 0000863  51.5618  74.5039 15.73137178  4132,6728.074000000001,91.537,350.52,349.3590000000001,0.0
51889.0,STARLINK-3547,PAYLOAD,2022-03-22 14:00:01,15.7319124,8.13e-05,53.2183,50.2098,51.5439,275.606,0.0001066,0.00014361,0.0,0 STARLINK-3547,1 51889U 22022AP  22081.58334491  .00014361  00000-0  10660-3 0  9990,2 51889  53.2183  50.2098 0000813  51.5439 275.6060 15.73191240  4203,6727.92,91.534,350.332,349.23800000000006,0.0
51889.0,STARLINK-3547,PAYLOAD,2022-03-22 22:00:01,15.73215961,8.72e-05,53.2188,48.5593,65.5,350.6371,0.00042664,0.00059723,0.0,0 STARLINK-3547,1 51889U 22022AP  22081.91668981  .00059723  00000-0  42664-3 0  9991,2 51889  53.2188  48.5593 0000872  65.5000 350.6371 15.73215961  3724,6727.85,91.532,350.301,349.12800000000016,0.0
51889.0,STARLINK-3547,PAYLOAD,2022-03-23 14:00:01,15.7323795,0.0001252,53.2182,45.2613,67.6969,166.3066,-0.00048039,-0.00067608,0.0,0 STARLINK-3547,1 51889U 22022AP  22082.58334491 -.00067608  00000-0 -48039-3 0  9996,2 51889  53.2182  45.2613 0001252  67.6969 166.3066 15.73237950  3719,6727.7869999999975,91.531,350.494,348.81,0.0
51889.0,STARLINK-3547,PAYLOAD,2022-03-23 20:00:01,15.73170333,0.0001248,53.2182,44.0233,78.1881,132.523,0.00063895,0.00089902,0.0,0 STARLINK-3547,1 51889U 22022AP  22082.83334491  .00089902  00000-0  63895-3 0  9990,2 51889  53.2182  44.0233 0001248  78.1881 132.5230 15.73170333  4405,6727.98,91.535,350.684,349.005,0.0
51889.0,STARLINK-3547,PAYLOAD,2022-03-23 22:00:00,15.7320081,0.0001255,53.2184,43.6113,78.1799,244.7517,0.00039826,0.00055646,0.0,0 STARLINK-3547,1 51889U 22022AP  22082.91667824  .00055646  00000-0  39826-3 0  9993,2 51889  53.2184  43.6113 0001255  78.1799 244.7517 15.73200810  3716,6727.893,91.533,350.602,348.914,0.0
51889.0,STARLINK-3547,PAYLOAD,2022-03-24 06:00:00,15.73221442,0.000125,53.2185,41.964,66.9207,344.9606,-0.00027072,-0.00038475,0.0,0 STARLINK-3547,1 51889U 22022AP  22083.25001157 -.00038475  00000-0 -27072-3 0  9995,2 51889  53.2185  41.9640 0001250  66.9207 344.9606 15.73221442  4466,6727.834,91.532,350.54,348.858,0.0
51889.0,STARLINK-3547,PAYLOAD,2022-03-24 14:00:01,15.73200715,0.0001176,53.2186,40.313,71.0619,69.7643,-0.00022281,-0.00031772,0.0,0 STARLINK-3547,1 51889U 22022AP  22083.58334491 -.00031772  00000-0 -22281-3 0  9991,2 51889  53.2186  40.3130 0001176  71.0619  69.7643 15.73200715  3692,6727.893,91.533,350.5490000000001,348.967,0.0
51889.0,STARLINK-3547,PAYLOAD,2022-03-24 22:00:00,15.73195367,0.0001294,53.2188,38.663,80.3802,149.3514,0.0004044,0.00056506,0.0,0 STARLINK-3547,1 51889U 22022AP  22083.91667824  .00056506  00000-0  40440-3 0  9994,2 51889  53.2188  38.6630 0001294  80.3802 149.3514 15.73195367  4573,6727.908,91.533,350.644,348.903,0.0
51889.0,STARLINK-3547,PAYLOAD,2022-03-25 12:00:00,15.73251514,0.0001234,53.2182,35.7773,71.4236,223.9629,-0.00091161,-0.00126924,0.0,0 STARLINK-3547,1 51889U 22022AP  22084.50001157 -.00126924  00000-0 -91161-3 0  9991,2 51889  53.2182  35.7773 0001234  71.4236 223.9629 15.73251514  4662,6727.748000000001,91.53,350.444,348.783,0.0
51889.0,STARLINK-3547,PAYLOAD,2022-03-25 14:00:01,15.73212667,0.0001182,53.2184,35.3645,76.4816,331.1521,-0.00053047,-0.00074451,0.0,0 STARLINK-3547,1 51889U 22022AP  22084.58334491 -.00074451  00000-0 -53047-3 0  9997,2 51889  53.2184  35.3645 0001182  76.4816 331.1521 15.73212667  3690,6727.859,91.532,350.519,348.92900000000014,0.0
51889.0,STARLINK-3547,PAYLOAD,2022-03-25 20:00:01,15.73147055,0.0001322,53.2184,34.1267,84.7421,299.5828,0.00061102,0.00085817,0.0,0 STARLINK-3547,1 51889U 22022AP  22084.83334491  .00085817  00000-0  61102-3 0  9992,2 51889  53.2184  34.1267 0001322  84.7421 299.5828 15.73147055  4716,6728.045999999999,91.536,350.801,349.022,0.0
51889.0,STARLINK-3547,PAYLOAD,2022-03-25 22:00:01,15.7317647,0.0001329,53.2186,33.7144,83.3093,53.2954,0.00035834,0.00049919,0.0,0 STARLINK-3547,1 51889U 22022AP  22084.91668981  .00049919  00000-0  35834-3 0  9991,2 51889  53.2186  33.7144 0001329  83.3093  53.2954 15.73176470  3744,6727.962,91.535,350.721,348.93300000000005,0.0
51889.0,STARLINK-3547,PAYLOAD,2022-03-26 12:00:00,15.73238275,0.0001136,53.2184,30.829,74.2187,127.9387,-0.00043269,-0.00061004,0.0,0 STARLINK-3547,1 51889U 22022AP  22085.50001157 -.00061004  00000-0 -43269-3 0  9995,2 51889  53.2184  30.8290 0001136  74.2187 127.9387 15.73238275  4822,6727.786,91.531,350.415,348.88699999999994,0.0
51889.0,STARLINK-3547,PAYLOAD,2022-03-26 14:00:01,15.73200312,0.0001114,53.2186,30.416,79.5469,234.8602,6.9454e-05,9.138e-05,0.0,0 STARLINK-3547,1 51889U 22022AP  22085.58334491  .00009138  00000-0  69454-4 0  9996,2 51889  53.2186  30.4160 0001114  79.5469 234.8602 15.73200312  3685,6727.894,91.533,350.509,349.01,0.0
51889.0,STARLINK-3547,PAYLOAD,2022-03-26 20:00:01,15.73219295,0.0001184,53.2189,29.1781,85.1004,205.9981,-0.00021683,-0.00030963,0.0,0 STARLINK-3547,1 51889U 22022AP  22085.83334491 -.00030963  00000-0 -21683-3 0  9997,2 51889  53.2189  29.1781 0001184  85.1004 205.9981 15.73219295  4878,6727.84,91.532,350.50199999999984,348.909,0.0
